OBJECT_NAME,OBJECT_ID,EPOCH,MEAN_MOTION,ECCENTRICITY,INCLINATION,RA_OF_ASC_NODE,ARG_OF_PERICENTER,MEAN_ANOMALY,EPHEMERIS_TYPE,CLASSIFICATION_TYPE,NORAD_CAT_ID,ELEMENT_SET_NO,REV_AT_EPOCH,BSTAR,MEAN_MOTION_DOT,MEAN_MOTION_DDOT
2022-023F,2022-023F,2026-07-20T19:24:56.304864,15.17897841,.01336606,63.4458,159.1870,341.6130,18.0174,0,U,51951,999,24281,.26614997E-3,.6598E-4,0
MERIDIAN 10,2022-030A,2026-07-19T20:51:14.174784,2.00608863,.67932014,62.6764,137.2648,272.8380,17.5937,0,U,52145,999,3168,0,.14E-5,0
OMNI-L1,2022-033A,2026-07-20T18:49:28.221888,14.82855607,.00057876,97.8387,280.3097,160.7543,199.3891,0,U,52157,999,23243,.12340862E-3,.947E-5,0
ENMAP,2022-033C,2026-07-20T22:47:30.120288,14.74943094,.00012454,97.9782,283.7183,83.3106,276.8245,0,U,52159,999,23163,.30397388E-4,.154E-5,0
ARCSAT-1,2022-033E,2026-07-20T19:15:37.607904,15.54363461,.00062642,97.2745,294.5938,82.2961,277.9004,0,U,52161,999,24092,.12280876E-3,.7949E-4,0
GLOBAL-18,2022-034B,2026-07-20T22:00:06.577056,15.47390374,.00046698,52.9811,95.2958,39.6403,320.4943,0,U,52196,999,24218,.3574498E-3,.18202E-3,0
GAOFEN-3 03,2022-035A,2026-07-20T22:44:11.594688,14.42218360,.00017842,98.4073,210.0386,87.6701,272.4693,0,U,52200,999,22571,.5472887E-5,-.25E-6,0
DAQI-1,2022-039A,2026-07-20T23:40:02.704224,14.57693524,.00043916,98.1484,140.1404,133.2358,226.9208,0,U,52257,999,22686,-.1754814E-4,-.125E-5,0
BRO-6,2022-047AE,2026-07-20T22:16:43.933728,15.52874123,.0002914,97.3380,293.6882,277.2516,82.8406,0,U,52422,999,23638,.54631319E-3,.33911E-3,0
JILIN-1 GAOFEN 3D27,2022-048B,2026-07-20T21:57:50.336352,15.84603905,.00056585,97.5719,319.1554,232.2800,127.7957,0,U,52444,999,23480,.68847988E-3,.160203E-2,0
JILIN-1 GAOFEN 3D28,2022-048C,2026-07-20T18:19:52.533408,15.90182302,.00057511,97.5674,319.3322,237.7721,122.2995,0,U,52445,999,23484,.71507419E-3,.214194E-2,.18879309E-4
VIGORIDE-3,2022-057AE,2026-07-20T21:20:20.915808,15.27584431,.00083894,97.6648,342.7724,16.1406,344.0098,0,U,52760,999,23030,.13642791E-3,.3603E-4,0
ION SCV-006,2022-057AF,2026-07-20T21:27:09.076320,15.46002939,.00162675,97.6140,352.1591,356.8521,3.2623,0,U,52761,999,23132,.17568868E-3,.8515E-4,0
SHERPA-AC1,2022-057AH,2026-07-20T22:22:12.934560,15.36679994,.00066779,97.6728,352.5838,342.5081,17.5932,0,U,52763,999,23088,.14437018E-3,.5086E-4,0
OMNI-L2,2022-057AR,2026-07-20T18:14:10.501728,14.81445277,.00061589,97.4696,261.8603,200.2410,159.8561,0,U,52771,999,22536,.8688932E-4,.633E-5,0
STEP CUBE LAB-II,2022-065D,2026-07-20T21:57:05.490432,14.63347611,.00072434,98.2274,345.7209,281.6626,78.3763,0,U,52897,999,21643,.86970283E-4,.401E-5,0
RANDEV,2022-065E,2026-07-20T21:45:46.528992,14.63736507,.00065772,98.2259,346.0795,282.2265,77.8201,0,U,52898,999,21618,.87833269E-4,.409E-5,0
SNUGLITE-II,2022-065F,2026-07-20T22:08:03.902496,14.64400541,.00061397,98.2245,346.7014,278.9653,81.0854,0,U,52899,999,21593,.11826387E-3,.577E-5,0
MIMAN,2022-065G,2026-07-20T22:18:14.914656,14.61875004,.00062879,98.2305,344.2500,282.4382,77.6115,0,U,52900,999,21537,.67386295E-4,.289E-5,0
STARLINK-4362,2022-077A,2026-07-20T10:16:48.764352,15.05653566,.00014782,97.2866,18.5879,102.9575,257.1818,0,U,53043,999,22088,.864188E-5,.68E-6,0
LARES-2,2022-080A,2026-07-18T18:51:23.050944,6.38965084,.00054794,70.1539,294.4914,328.1411,31.8962,0,U,53105,999,9368,0,-.2E-6,0
GREENCUBE (IO-117),2022-080E,2026-07-20T04:18:04.419648,6.42583323,.00090888,70.1400,286.7734,282.4177,77.5466,0,U,53109,999,9418,0,-.3E-7,0
STARLINK-4410,2022-084R,2026-07-20T22:00:01.999584,15.36953764,.00015403,97.6001,264.2251,86.9140,343.7699,0,U,53204,999,586,.13157815E-3,.4668E-4,0
COSMOS 2558,2022-089A,2026-07-20T20:40:50.068704,15.82905343,.0004329,97.2232,307.4901,220.3966,139.6983,0,U,53323,999,22314,.5961E-3,.127495E-2,0
TECMS,2022-090A,2026-07-20T23:10:56.593056,15.21257043,.00053477,97.3121,269.1142,71.0626,289.1189,0,U,53346,999,21994,.10016069E-3,.2171E-4,0
DONGPO 02,2022-098J,2026-07-20T17:09:16.746624,15.82310058,.00044212,97.5550,336.0219,204.4759,155.6300,0,U,53452,999,22008,.58341461E-3,.121299E-2,0
DONGPO 01,2022-098K,2026-07-20T22:50:30.451776,15.79139013,.00029042,97.5620,336.6967,199.1765,160.9393,0,U,53453,999,22007,.61724462E-3,.110877E-2,0
STARLINK-4400,2022-099D,2026-07-20T20:56:50.456544,15.05643697,.00018557,97.2847,319.0880,128.2064,231.9331,0,U,53468,999,21601,.1120248E-3,.156E-4,0
STARLINK-4621,2022-105AE,2026-07-20T22:36:30.018240,15.05657786,.00018413,97.2852,79.1699,93.0394,267.1045,0,U,53676,999,21328,.50860955E-4,.678E-5,0
