2022-023F               
1 51951U 22023F   26201.80898501  .00006598  00000+0  26615-3 0  9990
2 51951  63.4458 159.1870 0133660 341.6130  18.0174 15.17897841242810
MERIDIAN 10             
1 52145U 22030A   26200.86891406  .00000140  00000+0  00000+0 0  9999
2 52145  62.6764 137.2648 6793201 272.8380  17.5937  2.00608863 31682
OMNI-L1                 
1 52157U 22033A   26201.78435442  .00000947  00000+0  12341-3 0  9991
2 52157  97.8387 280.3097 0005787 160.7543 199.3891 14.82855607232436
ENMAP                   
1 52159U 22033C   26201.94965417  .00000154  00000+0  30397-4 0  9993
2 52159  97.9782 283.7183 0001245  83.3106 276.8245 14.74943094231635
ARCSAT-1                
1 52161U 22033E   26201.80251861  .00007949  00000+0  12281-3 0  9992
2 52161  97.2745 294.5938 0006264  82.2961 277.9004 15.54363461240921
GLOBAL-18               
1 52196U 22034B   26201.91674279  .00018202  00000+0  35745-3 0  9999
2 52196  52.9811  95.2958 0004669  39.6403 320.4943 15.47390374242184
GAOFEN-3 03             
1 52200U 22035A   26201.94735642 -.00000025  00000+0  54729-5 0  9991
2 52200  98.4073 210.0386 0001784  87.6701 272.4693 14.42218360225712
DAQI-1                  
1 52257U 22039A   26201.98614241 -.00000125  00000+0 -17548-4 0  9991
2 52257  98.1484 140.1404 0004391 133.2358 226.9208 14.57693524226862
BRO-6                   
1 52422U 22047AE  26201.92828627  .00033911  00000+0  54631-3 0  9993
2 52422  97.3380 293.6882 0002914 277.2516  82.8406 15.52874123236389
JILIN-1 GAOFEN 3D27     
1 52444U 22048B   26201.91516593  .00160203  00000+0  68848-3 0  9993
2 52444  97.5719 319.1554 0005658 232.2800 127.7957 15.84603905234804
JILIN-1 GAOFEN 3D28     
1 52445U 22048C   26201.76380247  .00214194  18879-4  71507-3 0  9995
2 52445  97.5674 319.3322 0005751 237.7721 122.2995 15.90182302234842
VIGORIDE-3              
1 52760U 22057AE  26201.88913097  .00003603  00000+0  13643-3 0  9993
2 52760  97.6648 342.7724 0008389  16.1406 344.0098 15.27584431230303
ION SCV-006             
1 52761U 22057AF  26201.89385505  .00008515  00000+0  17569-3 0  9990
2 52761  97.6140 352.1591 0016267 356.8521   3.2623 15.46002939231324
SHERPA-AC1              
1 52763U 22057AH  26201.93209415  .00005086  00000+0  14437-3 0  9993
2 52763  97.6728 352.5838 0006677 342.5081  17.5932 15.36679994230884
OMNI-L2                 
1 52771U 22057AR  26201.75984377  .00000633  00000+0  86889-4 0  9993
2 52771  97.4696 261.8603 0006158 200.2410 159.8561 14.81445277225366
STEP CUBE LAB-II        
1 52897U 22065D   26201.91464688  .00000401  00000+0  86970-4 0  9991
2 52897  98.2274 345.7209 0007243 281.6626  78.3763 14.63347611216438
RANDEV                  
1 52898U 22065E   26201.90678853  .00000409  00000+0  87833-4 0  9999
2 52898  98.2259 346.0795 0006577 282.2265  77.8201 14.63736507216180
SNUGLITE-II             
1 52899U 22065F   26201.92226739  .00000577  00000+0  11826-3 0  9998
2 52899  98.2245 346.7014 0006139 278.9653  81.0854 14.64400541215934
MIMAN                   
1 52900U 22065G   26201.92933929  .00000289  00000+0  67386-4 0  9990
2 52900  98.2305 344.2500 0006287 282.4382  77.6115 14.61875004215376
STARLINK-4362           
1 53043U 22077A   26201.42834218  .00000068  00000+0  86419-5 0  9992
2 53043  97.2866  18.5879 0001478 102.9575 257.1818 15.05653566220886
LARES-2                 
1 53105U 22080A   26199.78568346 -.00000020  00000+0  00000+0 0  9991
2 53105  70.1539 294.4914 0005479 328.1411  31.8962  6.38965084 93683
GREENCUBE (IO-117)      
1 53109U 22080E   26201.17921782 -.00000003  00000+0  00000+0 0  9990
2 53109  70.1400 286.7734 0009088 282.4177  77.5466  6.42583323 94188
STARLINK-4410           
1 53204U 22084R   26201.91668981  .00004668  00000+0  13158-3 0  9993
2 53204  97.6001 264.2251 0001540  86.9140 343.7699 15.36953764  5868
COSMOS 2558             
1 53323U 22089A   26201.86169061  .00127495  00000+0  59610-3 0  9996
2 53323  97.2232 307.4901 0004329 220.3966 139.6983 15.82905343223144
TECMS                   
1 53346U 22090A   26201.96593279  .00002171  00000+0  10016-3 0  9996
2 53346  97.3121 269.1142 0005347  71.0626 289.1189 15.21257043219945
DONGPO 02               
1 53452U 22098J   26201.71477716  .00121299  00000+0  58341-3 0  9998
2 53452  97.5550 336.0219 0004421 204.4759 155.6300 15.82310058220083
DONGPO 01               
1 53453U 22098K   26201.95174134  .00110877  00000+0  61724-3 0  9992
2 53453  97.5620 336.6967 0002904 199.1765 160.9393 15.79139013220075
STARLINK-4400           
1 53468U 22099D   26201.87280621  .00001560  00000+0  11202-3 0  9993
2 53468  97.2847 319.0880 0001855 128.2064 231.9331 15.05643697216014
STARLINK-4621           
1 53676U 22105AE  26201.94201410  .00000678  00000+0  50861-4 0  9993
2 53676  97.2852  79.1699 0001841  93.0394 267.1045 15.05657786213286
